start=new Date('2021-09-03T00:00:00.000Z').valueOf();
sats=[{"PERIOD":"95.592","MEAN_MOTION":"15.06398719","MEAN_MOTION_DOT":"0.00001576","OBJECT_NAME":"STARLINK-1513","COUNTRY_CODE":"US","RA_OF_ASC_NODE":"38.8019","BSTAR":"0.00012467000000","FILE":"3107724","ARG_OF_PERICENTER":"114.1001","OBJECT_TYPE":"PAYLOAD","TLE_LINE2":"2 45786  53.0565  38.8019 0001546 114.1001 246.0150 15.06398719 68235","INCLINATION":"53.0565","MEAN_MOTION_DDOT":"0.0000000000000","REF_FRAME":"TEME","SITE":"AFETR","NORAD_CAT_ID":"45786","TLE_LINE1":"1 45786U 20038BJ  21245.79540799  .00001576  00000-0  12467-3 0  9999","MEAN_ELEMENT_THEORY":"SGP4","ELEMENT_SET_NO":"999","CENTER_NAME":"EARTH","EPHEMERIS_TYPE":"0","DECAY_DATE":null,"MEAN_ANOMALY":"246.0150","EPOCH":"2021-09-02T19:05:23.250336","TIME_SYSTEM":"UTC","APOAPSIS":"548.288","PERIAPSIS":"546.147","CLASSIFICATION_TYPE":"U","SEMIMAJOR_AXIS":"6925.352","LAUNCH_DATE":"2020-06-13","ECCENTRICITY":"0.00015460","OBJECT_ID":"2020-038BJ","GP_ID":"183986314","RCS_SIZE":"LARGE","REV_AT_EPOCH":"6823"},{"NORAD_CAT_ID":"45787","TLE_LINE1":"1 45787U 20038BK  21245.80276818  .00000722  00000-0  67366-4 0  9991","MEAN_ELEMENT_THEORY":"SGP4","SITE":"AFETR","MEAN_MOTION_DDOT":"0.0000000000000","REF_FRAME":"TEME","FILE":"3107724","BSTAR":"0.00006736600000","ARG_OF_PERICENTER":"111.6974","INCLINATION":"53.0557","TLE_LINE2":"2 45787  53.0557  38.7632 0001536 111.6974 248.4179 15.06398418 68230","OBJECT_TYPE":"PAYLOAD","RA_OF_ASC_NODE":"38.7632","OBJECT_NAME":"STARLINK-1517","COUNTRY_CODE":"US","MEAN_MOTION":"15.06398418","PERIOD":"95.592","MEAN_MOTION_DOT":"0.00000722","ECCENTRICITY":"0.00015360","GP_ID":"183986564","RCS_SIZE":"LARGE","OBJECT_ID":"2020-038BK","REV_AT_EPOCH":"6823","LAUNCH_DATE":"2020-06-13","TIME_SYSTEM":"UTC","CLASSIFICATION_TYPE":"U","PERIAPSIS":"546.155","APOAPSIS":"548.282","SEMIMAJOR_AXIS":"6925.353","DECAY_DATE":null,"EPHEMERIS_TYPE":"0","MEAN_ANOMALY":"248.4179","EPOCH":"2021-09-02T19:15:59.170752","ELEMENT_SET_NO":"999","CENTER_NAME":"EARTH"},{"PERIOD":"95.592","MEAN_MOTION":"15.06396669","MEAN_MOTION_DOT":"0.00001821","RA_OF_ASC_NODE":"329.1862","COUNTRY_CODE":"US","OBJECT_NAME":"STARLINK-1522","REF_FRAME":"TEME","MEAN_MOTION_DDOT":"0.0000000000000","FILE":"3107724","ARG_OF_PERICENTER":"106.0590","BSTAR":"0.00014112000000","TLE_LINE2":"2 46027  53.0563 329.1862 0001058 106.0590 254.0515 15.06396669 60345","OBJECT_TYPE":"PAYLOAD","INCLINATION":"53.0563","TLE_LINE1":"1 46027U 20055A   21245.70970934  .00001821  00000-0  14112-3 0  9998","NORAD_CAT_ID":"46027","MEAN_ELEMENT_THEORY":"SGP4","SITE":"AFETR","DECAY_DATE":null,"EPHEMERIS_TYPE":"0","MEAN_ANOMALY":"254.0515","EPOCH":"2021-09-02T17:01:58.886976","ELEMENT_SET_NO":"999","CENTER_NAME":"EARTH","PERIAPSIS":"546.491","SEMIMAJOR_AXIS":"6925.359","APOAPSIS":"547.956","CLASSIFICATION_TYPE":"U","TIME_SYSTEM":"UTC","REV_AT_EPOCH":"6034","GP_ID":"183985839","RCS_SIZE":"LARGE","OBJECT_ID":"2020-055A","ECCENTRICITY":"0.00010580","LAUNCH_DATE":"2020-08-07"},{"APOAPSIS":"547.854","PERIAPSIS":"546.494","SEMIMAJOR_AXIS":"6925.309","CLASSIFICATION_TYPE":"U","TIME_SYSTEM":"UTC","DECAY_DATE":null,"EPHEMERIS_TYPE":"0","EPOCH":"2021-09-02T17:23:12.457536","MEAN_ANOMALY":"243.6135","ELEMENT_SET_NO":"999","CENTER_NAME":"EARTH","GP_ID":"183986089","RCS_SIZE":"LARGE","REV_AT_EPOCH":"6036","OBJECT_ID":"2020-055B","ECCENTRICITY":"0.00009820","LAUNCH_DATE":"2020-08-07","RA_OF_ASC_NODE":"329.1232","COUNTRY_CODE":"US","OBJECT_NAME":"STARLINK-1523","PERIOD":"95.591","MEAN_MOTION":"15.06412842","MEAN_MOTION_DOT":"0.00003585","TLE_LINE1":"1 46028U 20055B   21245.72444974  .00003585  00000-0  25937-3 0  9997","NORAD_CAT_ID":"46028","MEAN_ELEMENT_THEORY":"SGP4","SITE":"AFETR","REF_FRAME":"TEME","MEAN_MOTION_DDOT":"0.0000000000000","FILE":"3107724","BSTAR":"0.00025937000000","ARG_OF_PERICENTER":"116.4955","TLE_LINE2":"2 46028  53.0539 329.1232 0000982 116.4955 243.6135 15.06412842 60361","OBJECT_TYPE":"PAYLOAD","INCLINATION":"53.0539"},{"NORAD_CAT_ID":"46029","TLE_LINE1":"1 46029U 20055C   21245.65071997  .00001437  00000-0  11531-3 0  9990","MEAN_ELEMENT_THEORY":"SGP4","SITE":"AFETR","MEAN_MOTION_DDOT":"0.0000000000000","REF_FRAME":"TEME","BSTAR":"0.00011531000000","FILE":"3107724","ARG_OF_PERICENTER":"110.8900","TLE_LINE2":"2 46029  53.0561 329.4511 0001207 110.8900 249.2218 15.06398747 60348","INCLINATION":"53.0561","OBJECT_TYPE":"PAYLOAD","RA_OF_ASC_NODE":"329.4511","OBJECT_NAME":"STARLINK-1526","COUNTRY_CODE":"US","MEAN_MOTION":"15.06398747","PERIOD":"95.592","MEAN_MOTION_DOT":"0.00001437","ECCENTRICITY":"0.00012070","RCS_SIZE":"LARGE","GP_ID":"183987341","REV_AT_EPOCH":"6034","OBJECT_ID":"2020-055C","LAUNCH_DATE":"2020-08-07","TIME_SYSTEM":"UTC","APOAPSIS":"548.053","PERIAPSIS":"546.382","SEMIMAJOR_AXIS":"6925.352","CLASSIFICATION_TYPE":"U","DECAY_DATE":null,"EPHEMERIS_TYPE":"0","EPOCH":"2021-09-02T15:37:02.205408","MEAN_ANOMALY":"249.2218","ELEMENT_SET_NO":"999","CENTER_NAME":"EARTH"},{"LAUNCH_DATE":"2020-08-07","RCS_SIZE":"LARGE","GP_ID":"183987091","OBJECT_ID":"2020-055D","REV_AT_EPOCH":"6030","ECCENTRICITY":"0.00010730","CENTER_NAME":"EARTH","ELEMENT_SET_NO":"999","EPOCH":"2021-09-02T16:03:37.857024","MEAN_ANOMALY":"262.8839","EPHEMERIS_TYPE":"0","DECAY_DATE":null,"PERIAPSIS":"546.513","SEMIMAJOR_AXIS":"6925.391","APOAPSIS":"547.999","CLASSIFICATION_TYPE":"U","TIME_SYSTEM":"UTC","TLE_LINE2":"2 46030  53.0544 329.3731 0001073  97.2272 262.8839 15.06386020 60302","INCLINATION":"53.0544","OBJECT_TYPE":"PAYLOAD","FILE":"3107724","ARG_OF_PERICENTER":"97.2272","BSTAR":"0.00017413000000","MEAN_MOTION_DDOT":"0.0000000000000","REF_FRAME":"TEME","SITE":"AFETR","MEAN_ELEMENT_THEORY":"SGP4","TLE_LINE1":"1 46030U 20055D   21245.66918816  .00002312  00000-0  17413-3 0  9991","NORAD_CAT_ID":"46030","MEAN_MOTION_DOT":"0.00002312","MEAN_MOTION":"15.06386020","PERIOD":"95.593","COUNTRY_CODE":"US","OBJECT_NAME":"STARLINK-1534","RA_OF_ASC_NODE":"329.3731"},{"TIME_SYSTEM":"UTC","APOAPSIS":"548.091","PERIAPSIS":"546.414","SEMIMAJOR_AXIS":"6925.388","CLASSIFICATION_TYPE":"U","DECAY_DATE":null,"EPHEMERIS_TYPE":"0","MEAN_ANOMALY":"241.8521","EPOCH":"2021-09-02T14:33:23.486112","ELEMENT_SET_NO":"999","CENTER_NAME":"EARTH","ECCENTRICITY":"0.00012110","REV_AT_EPOCH":"6032","GP_ID":"183986340","RCS_SIZE":"LARGE","OBJECT_ID":"2020-055E","LAUNCH_DATE":"2020-08-07","RA_OF_ASC_NODE":"329.6485","OBJECT_NAME":"STARLINK-1544","COUNTRY_CODE":"US","PERIOD":"95.593","MEAN_MOTION":"15.06387198","MEAN_MOTION_DOT":"0.00001232","NORAD_CAT_ID":"46031","TLE_LINE1":"1 46031U 20055E   21245.60652183  .00001232  00000-0  10159-3 0  9998","MEAN_ELEMENT_THEORY":"SGP4","SITE":"AFETR","MEAN_MOTION_DDOT":"0.0000000000000","REF_FRAME":"TEME","FILE":"3107724","BSTAR":"0.00010159000000","ARG_OF_PERICENTER":"118.2590","TLE_LINE2":"2 46031  53.0552 329.6485 0001211 118.2590 241.8521 15.06387198 60326","INCLINATION":"53.0552","OBJECT_TYPE":"PAYLOAD"},{"LAUNCH_DATE":"2020-08-07","RCS_SIZE":"LARGE","GP_ID":"183986590","OBJECT_ID":"2020-055F","REV_AT_EPOCH":"6035","ECCENTRICITY":"0.00012120","PERIAPSIS":"546.401","CLASSIFICATION_TYPE":"U","APOAPSIS":"548.079","SEMIMAJOR_AXIS":"6925.375","TIME_SYSTEM":"UTC","CENTER_NAME":"EARTH","ELEMENT_SET_NO":"999","MEAN_ANOMALY":"233.1400","EPOCH":"2021-09-02T16:51:22.132800","DECAY_DATE":null,"EPHEMERIS_TYPE":"0","SITE":"AFETR","MEAN_ELEMENT_THEORY":"SGP4","TLE_LINE1":"1 46032U 20055F   21245.70233950  .00001431  00000-0  11493-3 0  9990","NORAD_CAT_ID":"46032","TLE_LINE2":"2 46032  53.0565 329.2224 0001212 126.9700 233.1400 15.06391400 60352","INCLINATION":"53.0565","OBJECT_TYPE":"PAYLOAD","BSTAR":"0.00011493000000","FILE":"3107724","ARG_OF_PERICENTER":"126.9700","MEAN_MOTION_DDOT":"0.0000000000000","REF_FRAME":"TEME","COUNTRY_CODE":"US","OBJECT_NAME":"STARLINK-1555","RA_OF_ASC_NODE":"329.2224","MEAN_MOTION_DOT":"0.00001431","MEAN_MOTION":"15.06391400","PERIOD":"95.593"},{"RA_OF_ASC_NODE":"328.9997","OBJECT_NAME":"STARLINK-1556","COUNTRY_CODE":"US","MEAN_MOTION_DOT":"0.00003786","MEAN_MOTION":"15.06402893","PERIOD":"95.592","MEAN_ELEMENT_THEORY":"SGP4","NORAD_CAT_ID":"46033","TLE_LINE1":"1 46033U 20055G   21245.75025312  .00003786  00000-0  27292-3 0  9996","SITE":"AFETR","MEAN_MOTION_DDOT":"0.0000000000000","REF_FRAME":"TEME","TLE_LINE2":"2 46033  53.0555 328.9997 0001223 108.8175 251.2947 15.06402893 60336","INCLINATION":"53.0555","OBJECT_TYPE":"PAYLOAD","FILE":"3107724","BSTAR":"0.00027292000000","ARG_OF_PERICENTER":"108.8175","TIME_SYSTEM":"UTC","CLASSIFICATION_TYPE":"U","PERIAPSIS":"546.358","APOAPSIS":"548.052","SEMIMAJOR_AXIS":"6925.340","EPOCH":"2021-09-02T18:00:21.869568","MEAN_ANOMALY":"251.2947","DECAY_DATE":null,"EPHEMERIS_TYPE":"0","CENTER_NAME":"EARTH","ELEMENT_SET_NO":"999","ECCENTRICITY":"0.00012230","GP_ID":"183986841","RCS_SIZE":"LARGE","OBJECT_ID":"2020-055G","REV_AT_EPOCH":"6033","LAUNCH_DATE":"2020-08-07"},{"LAUNCH_DATE":"2020-08-07","GP_ID":"183958376","RCS_SIZE":"LARGE","REV_AT_EPOCH":"6030","OBJECT_ID":"2020-055H","ECCENTRICITY":"0.00012340","SEMIMAJOR_AXIS":"6925.363","PERIAPSIS":"546.373","APOAPSIS":"548.082","CLASSIFICATION_TYPE":"U","TIME_SYSTEM":"UTC","ELEMENT_SET_NO":"999","CENTER_NAME":"EARTH","EPHEMERIS_TYPE":"0","DECAY_DATE":null,"MEAN_ANOMALY":"236.8717","EPOCH":"2021-09-02T13:19:03.770400","SITE":"AFETR","TLE_LINE1":"1 46034U 20055H   21245.55490475  .00003075  00000-0  22527-3 0  9998","NORAD_CAT_ID":"46034","MEAN_ELEMENT_THEORY":"SGP4","FILE":"3107538","ARG_OF_PERICENTER":"123.2390","BSTAR":"0.00022527000000","OBJECT_TYPE":"PAYLOAD","TLE_LINE2":"2 46034  53.0556 329.8849 0001234 123.2390 236.8717 15.06395366 60303","INCLINATION":"53.0556","REF_FRAME":"TEME","MEAN_MOTION_DDOT":"0.0000000000000","COUNTRY_CODE":"US","OBJECT_NAME":"STARLINK-1557","RA_OF_ASC_NODE":"329.8849","PERIOD":"95.592","MEAN_MOTION":"15.06395366","MEAN_MOTION_DOT":"0.00003075"}];
